NORAD_CAT_ID,OBJECT_NAME,OBJECT_TYPE,EPOCH,MEAN_MOTION,ECCENTRICITY,INCLINATION,RA_OF_ASC_NODE,ARG_OF_PERICENTER,MEAN_ANOMALY,BSTAR,MEAN_MOTION_DOT,MEAN_MOTION_DDOT,TLE_LINE0,TLE_LINE1,TLE_LINE2,SEMIMAJOR_AXIS,PERIOD,APOGEE,PERIGEE,DECAYED
51739.0,STARLINK-3516,PAYLOAD,2024-04-19 11:40:55,15.08839228,0.0001616,53.2168,173.0714,77.589,282.5283,0.00026368,3.911e-05,0.0,0 STARLINK-3516,1 51739U 22016AB  24110.48675062  .00003911  00000-0  26368-3 0  9994,2 51739  53.2168 173.0714 0001616  77.5890 282.5283 15.08839228120633,6917.883,95.438,540.866,538.63,0.0
51739.0,STARLINK-3516,PAYLOAD,2024-04-20 03:34:45,15.08863336,0.0001601,53.2168,170.0961,77.205,282.9121,0.00067024,0.00010402,0.0,0 STARLINK-3516,1 51739U 22016AB  24111.14913951  .00010402  00000-0  67024-3 0  9997,2 51739  53.2168 170.0961 0001601  77.2050 282.9121 15.08863336120736,6917.809,95.436,540.782,538.567,0.0
51739.0,STARLINK-3516,PAYLOAD,2024-04-20 11:31:40,15.08882789,0.0001419,53.2157,168.609,85.6768,274.4387,0.00093441,0.00014632,0.0,0 STARLINK-3516,1 51739U 22016AB  24111.48032960  .00014632  00000-0  93441-3 0  9997,2 51739  53.2157 168.6090 0001419  85.6768 274.4387 15.08882789120784,6917.75,95.435,540.596,538.633,0.0
51739.0,STARLINK-3516,PAYLOAD,2024-04-21 03:25:33,15.08810361,0.0001698,53.2168,165.6361,89.2616,270.8571,-0.00068322,-0.00011136,0.0,0 STARLINK-3516,1 51739U 22016AB  24112.14275141 -.00011136  00000-0 -68322-3 0  9999,2 51739  53.2168 165.6361 0001698  89.2616 270.8571 15.08810361120888,6917.971,95.439,541.011,538.661,0.0
51739.0,STARLINK-3516,PAYLOAD,2024-04-21 09:47:06,15.08817266,0.0001778,53.2158,164.4482,90.0831,270.0365,0.00012329,1.673e-05,0.0,0 STARLINK-3516,1 51739U 22016AB  24112.40771533  .00001673  00000-0  12329-3 0  9993,2 51739  53.2158 164.4482 0001778  90.0831 270.0365 15.08817266119800,6917.95,95.439,541.045,538.585,0.0
51739.0,STARLINK-3516,PAYLOAD,2024-04-22 03:16:21,15.08862411,0.0001811,53.2176,161.1793,94.3094,265.8105,0.001845,0.00029215,0.0,0 STARLINK-3516,1 51739U 22016AB  24113.13635632  .00029215  00000-0  18450-2 0  9995,2 51739  53.2176 161.1793 0001811  94.3094 265.8105 15.08862411121039,6917.812,95.436,540.93,538.424,0.0
51739.0,STARLINK-3516,PAYLOAD,2024-04-22 09:37:53,15.08854506,0.0001392,53.2174,159.9868,106.4344,253.6802,0.00082836,0.00012925,0.0,0 STARLINK-3516,1 51739U 22016AB  24113.40131343  .00012925  00000-0  82836-3 0  9995,2 51739  53.2174 159.9868 0001392 106.4344 253.6802 15.08854506121071,6917.836,95.437,540.664,538.738,0.0
51739.0,STARLINK-3516,PAYLOAD,2024-04-22 12:48:40,15.08843197,0.0001668,53.2171,159.3968,74.2591,285.8585,0.00058817,9.086e-05,0.0,0 STARLINK-3516,1 51739U 22016AB  24113.53379692  .00009086  00000-0  58817-3 0  9996,2 51739  53.2171 159.3968 0001668  74.2591 285.8585 15.08843197121096,6917.871,95.437,540.89,538.582,0.0
51739.0,STARLINK-3516,PAYLOAD,2024-04-23 07:53:18,15.08839658,0.0001828,53.2174,155.8264,84.4913,275.6287,0.00012089,1.636e-05,0.0,0 STARLINK-3516,1 51739U 22016AB  24114.32868088  .00001636  00000-0  12089-3 0  9990,2 51739  53.2174 155.8264 0001828  84.4913 275.6287 15.08839658121215,6917.881,95.438,541.011,538.482,0.0
51739.0,STARLINK-3516,PAYLOAD,2024-04-24 09:19:27,15.08844581,0.0001535,53.2155,151.0639,98.5943,261.5223,0.00019547,2.825e-05,0.0,0 STARLINK-3516,1 51739U 22016AB  24115.38851615  .00002825  00000-0  19547-3 0  9992,2 51739  53.2155 151.0639 0001535  98.5943 261.5223 15.08844581121374,6917.866,95.437,540.793,538.669,0.0
51739.0,STARLINK-3516,PAYLOAD,2024-04-25 10:45:37,15.08845884,0.0001459,53.2154,146.3071,98.3909,261.7248,4.7288e-05,4.65e-06,0.0,0 STARLINK-3516,1 51739U 22016AB  24116.44835152  .00000465  00000-0  47288-4 0  9990,2 51739  53.2154 146.3071 0001459  98.3909 261.7248 15.08845884121539,6917.862,95.437,540.737,538.718,0.0
51739.0,STARLINK-3516,PAYLOAD,2024-04-26 10:36:24,15.08842064,0.000145,53.2169,141.847,91.564,268.5519,0.00010013,1.306e-05,0.0,0 STARLINK-3516,1 51739U 22016AB  24117.44195456  .00001306  00000-0  10013-3 0  9997,2 51739  53.2169 141.8470 0001450  91.5640 268.5519 15.08842064121685,6917.874,95.437,540.742,538.736,0.0
51739.0,STARLINK-3516,PAYLOAD,2024-04-27 10:27:11,15.08841979,0.0001697,53.2174,137.3874,84.9121,275.2064,7.034e-05,8.32e-06,0.0,0 STARLINK-3516,1 51739U 22016AB  24118.43555390  .00000832  00000-0  70340-4 0  9997,2 51739  53.2174 137.3874 0001697  84.9121 275.2064 15.08841979120719,6917.874,95.437,540.913,538.565,0.0
51739.0,STARLINK-3516,PAYLOAD,2024-04-27 18:24:07,15.08845202,0.0001607,53.2173,135.9012,86.6214,273.4962,8.8072e-05,1.114e-05,0.0,0 STARLINK-3516,1 51739U 22016AB  24118.76674890  .00001114  00000-0  88072-4 0  9995,2 51739  53.2173 135.9012 0001607  86.6214 273.4962 15.08845202121888,6917.864,95.437,540.841,538.618,0.0
51739.0,STARLINK-3516,PAYLOAD,2024-04-28 08:42:36,15.08832973,0.0001432,53.2163,133.2247,87.7705,272.3451,-3.8928e-05,-9.07e-06,0.0,0 STARLINK-3516,1 51739U 22016AB  24119.36292196 -.00000907  00000-0 -38928-4 0  9993,2 51739  53.2163 133.2247 0001432  87.7705 272.3451 15.08832973121973,6917.902,95.438,540.758,538.776,0.0
51739.0,STARLINK-3516,PAYLOAD,2024-04-28 18:14:54,15.08838582,0.0001485,53.2162,131.4407,87.5215,272.5947,-2.8096e-05,-7.35e-06,0.0,0 STARLINK-3516,1 51739U 22016AB  24119.76035853 -.00000735  00000-0 -28096-4 0  9996,2 51739  53.2162 131.4407 0001485  87.5215 272.5947 15.08838582120919,6917.885,95.438,540.777,538.722,0.0
51739.0,STARLINK-3516,PAYLOAD,2024-04-29 05:22:36,15.08837531,0.0001479,53.2163,129.3584,89.5501,270.5661,6.945e-05,8.17e-06,0.0,0 STARLINK-3516,1 51739U 22016AB  24120.22403713  .00000817  00000-0  69450-4 0  9991,2 51739  53.2163 129.3584 0001479  89.5501 270.5661 15.08837531122102,6917.888,95.438,540.776,538.73,0.0
51739.0,STARLINK-3516,PAYLOAD,2024-04-29 10:08:45,15.08843118,0.0001413,53.2161,128.4658,92.1993,267.9161,5.7129e-05,6.21e-06,0.0,0 STARLINK-3516,1 51739U 22016AB  24120.42275449  .00000621  00000-0  57129-4 0  9999,2 51739  53.2161 128.4658 0001413  92.1993 267.9161 15.08843118121017,6917.871,95.437,540.713,538.758,0.0
51739.0,STARLINK-3516,PAYLOAD,2024-04-29 18:05:41,15.08845506,0.000143,53.2162,126.9794,90.583,269.5326,7.5258e-05,9.1e-06,0.0,0 STARLINK-3516,1 51739U 22016AB  24120.75395222  .00000910  00000-0  75258-4 0  9991,2 51739  53.2162 126.9794 0001430  90.5830 269.5326 15.08845506121062,6917.864,95.437,540.718,538.739,0.0
51739.0,STARLINK-3516,PAYLOAD,2024-04-30 06:48:46,15.0884182,0.0001419,53.2163,124.6008,93.9666,266.1488,0.00019706,2.85e-05,0.0,0 STARLINK-3516,1 51739U 22016AB  24121.28387482  .00002850  00000-0  19706-3 0  9999,2 51739  53.2163 124.6008 0001419  93.9666 266.1488 15.08841820122267,6917.875,95.437,540.721,538.758,0.0
51739.0,STARLINK-3516,PAYLOAD,2024-05-01 05:04:10,15.08840702,0.0001479,53.2167,120.4364,99.1244,260.9916,7.3094e-05,8.76e-06,0.0,0 STARLINK-3516,1 51739U 22016AB  24122.21123774  .00000876  00000-0  73094-4 0  9992,2 51739  53.2167 120.4364 0001479  99.1244 260.9916 15.08840702122408,6917.878,95.438,540.766,538.72,0.0
51739.0,STARLINK-3516,PAYLOAD,2024-05-01 06:39:34,15.08839202,0.0001428,53.2163,120.141,90.2346,269.8809,6.7375e-05,7.84e-06,0.0,0 STARLINK-3516,1 51739U 22016AB  24122.27747905  .00000784  00000-0  67375-4 0  9999,2 51739  53.2163 120.1410 0001428  90.2346 269.8809 15.08839202121290,6917.883,95.438,540.736,538.76,0.0
51739.0,STARLINK-3516,PAYLOAD,2024-05-02 09:41:07,15.08841307,0.0001358,53.216,115.0844,86.0711,274.0437,1.597e-05,-3.4e-07,0.0,0 STARLINK-3516,1 51739U 22016AB  24123.40355669 -.00000034  00000-0  15970-4 0  9990,2 51739  53.2160 115.0844 0001358  86.0711 274.0437 15.08841307122589,6917.876,95.437,540.681,538.802,0.0
51739.0,STARLINK-3516,PAYLOAD,2024-05-03 06:21:08,15.08838381,0.0001366,53.2164,111.2195,88.643,271.4718,9.3536e-05,1.201e-05,0.0,0 STARLINK-3516,1 51739U 22016AB  24124.26467660  .00001201  00000-0  93536-4 0  9990,2 51739  53.2164 111.2195 0001366  88.6430 271.4718 15.08838381121596,6917.885,95.438,540.695,538.805,0.0
51739.0,STARLINK-3516,PAYLOAD,2024-05-03 15:53:26,15.08844979,0.0001415,53.2168,109.4354,88.5476,271.5678,0.00011661,1.569e-05,0.0,0 STARLINK-3516,1 51739U 22016AB  24124.66211138  .00001569  00000-0  11661-3 0  9996,2 51739  53.2168 109.4354 0001415  88.5476 271.5678 15.08844979122777,6917.865,95.437,540.709,538.751,0.0
51739.0,STARLINK-3516,PAYLOAD,2024-05-04 04:36:32,15.08831101,0.0001399,53.2164,107.0564,90.2968,269.8184,-1.0657e-05,-4.57e-06,0.0,0 STARLINK-3516,1 51739U 22016AB  24125.19204544 -.00000457  00000-0 -10657-4 0  9990,2 51739  53.2164 107.0564 0001399  90.2968 269.8184 15.08831101122851,6917.908,95.438,540.74,538.805,0.0
51739.0,STARLINK-3516,PAYLOAD,2024-05-05 04:27:19,15.08840872,0.0001268,53.2157,102.5957,89.1772,270.9365,8.3365e-05,1.039e-05,0.0,0 STARLINK-3516,1 51739U 22016AB  24126.18563956  .00001039  00000-0  83365-4 0  9996,2 51739  53.2157 102.5957 0001268  89.1772 270.9365 15.08840872123001,6917.878,95.437,540.62,538.866,0.0
51739.0,STARLINK-3516,PAYLOAD,2024-05-05 07:38:05,15.08844974,0.0001306,53.2163,102.0009,87.8308,272.2833,0.00011335,1.517e-05,0.0,0 STARLINK-3516,1 51739U 22016AB  24126.31811685  .00001517  00000-0  11335-3 0  9994,2 51739  53.2163 102.0009 0001306  87.8308 272.2833 15.08844974121903,6917.865,95.437,540.634,538.827,0.0
51739.0,STARLINK-3516,PAYLOAD,2024-05-06 05:53:29,15.08842721,0.0001254,53.217,97.8375,78.9112,281.2021,0.00017605,2.515e-05,0.0,0 STARLINK-3516,1 51739U 22016AB  24127.24547788  .00002515  00000-0  17605-3 0  9992,2 51739  53.2170  97.8375 0001254  78.9112 281.2021 15.08842721123161,6917.872,95.437,540.605,538.87,0.0
51739.0,STARLINK-3516,PAYLOAD,2024-05-06 21:47:20,15.08845271,0.0001461,53.2177,94.8626,85.8021,274.3138,0.00010802,1.432e-05,0.0,0 STARLINK-3516,1 51739U 22016AB  24127.90787743  .00001432  00000-0  10802-3 0  9991,2 51739  53.2177  94.8626 0001461  85.8021 274.3138 15.08845271122142,6917.864,95.437,540.74,538.719,0.0
